<?xml version="1.0" encoding="UTF-8"?>
<ndm xmlns:xsi="http://www.w3.org/2001/XMLSchema-instance" xsi:noNamespaceSchemaLocation="https://sanaregistry.org/r/ndmxml_unqualified/ndmxml-2.0.0-master-2.0.xsd">
<omm id="CCSDS_OMM_VERS" version="2.0">
<header><CREATION_DATE/><ORIGINATOR/></header><body><segment><metadata><OBJECT_NAME>IRIDIUM 150</OBJECT_NAME><OBJECT_ID>2018-030J</OBJECT_ID><CENTER_NAME>EARTH</CENTER_NAME><REF_FRAME>TEME</REF_FRAME><TIME_SYSTEM>UTC</TIME_SYSTEM><MEAN_ELEMENT_THEORY>SGP4</MEAN_ELEMENT_THEORY></metadata><data><meanElements><EPOCH>2024-10-18T05:33:48.291552</EPOCH><MEAN_MOTION>14.34219569</MEAN_MOTION><ECCENTRICITY>.0002429</ECCENTRICITY><INCLINATION>86.4038</INCLINATION><RA_OF_ASC_NODE>184.1484</RA_OF_ASC_NODE><ARG_OF_PERICENTER>80.9081</ARG_OF_PERICENTER><MEAN_ANOMALY>279.2389</MEAN_ANOMALY></meanElements><tleParameters><EPHEMERIS_TYPE>0</EPHEMERIS_TYPE><CLASSIFICATION_TYPE>U</CLASSIFICATION_TYPE><NORAD_CAT_ID>43257</NORAD_CAT_ID><ELEMENT_SET_NO>999</ELEMENT_SET_NO><REV_AT_EPOCH>34318</REV_AT_EPOCH><BSTAR>.47849E-3</BSTAR><MEAN_MOTION_DOT>.136E-4</MEAN_MOTION_DOT><MEAN_MOTION_DDOT>0</MEAN_MOTION_DDOT></tleParameters></data></segment></body></omm>
<omm id="CCSDS_OMM_VERS" version="2.0">
<header><CREATION_DATE/><ORIGINATOR/></header><body><segment><metadata><OBJECT_NAME>IRIDIUM 143</OBJECT_NAME><OBJECT_ID>2018-030K</OBJECT_ID><CENTER_NAME>EARTH</CENTER_NAME><REF_FRAME>TEME</REF_FRAME><TIME_SYSTEM>UTC</TIME_SYSTEM><MEAN_ELEMENT_THEORY>SGP4</MEAN_ELEMENT_THEORY></metadata><data><meanElements><EPOCH>2024-10-17T17:23:08.420064</EPOCH><MEAN_MOTION>14.34218935</MEAN_MOTION><ECCENTRICITY>.0002698</ECCENTRICITY><INCLINATION>86.4043</INCLINATION><RA_OF_ASC_NODE>184.4284</RA_OF_ASC_NODE><ARG_OF_PERICENTER>81.9612</ARG_OF_PERICENTER><MEAN_ANOMALY>278.1889</MEAN_ANOMALY></meanElements><tleParameters><EPHEMERIS_TYPE>0</EPHEMERIS_TYPE><CLASSIFICATION_TYPE>U</CLASSIFICATION_TYPE><NORAD_CAT_ID>43258</NORAD_CAT_ID><ELEMENT_SET_NO>999</ELEMENT_SET_NO><REV_AT_EPOCH>34302</REV_AT_EPOCH><BSTAR>.4357E-3</BSTAR><MEAN_MOTION_DOT>.124E-4</MEAN_MOTION_DOT><MEAN_MOTION_DDOT>0</MEAN_MOTION_DDOT></tleParameters></data></segment></body></omm>
<omm id="CCSDS_OMM_VERS" version="2.0">
<header><CREATION_DATE/><ORIGINATOR/></header><body><segment><metadata><OBJECT_NAME>IRIDIUM 161</OBJECT_NAME><OBJECT_ID>2018-047C</OBJECT_ID><CENTER_NAME>EARTH</CENTER_NAME><REF_FRAME>TEME</REF_FRAME><TIME_SYSTEM>UTC</TIME_SYSTEM><MEAN_ELEMENT_THEORY>SGP4</MEAN_ELEMENT_THEORY></metadata><data><meanElements><EPOCH>2024-10-18T09:15:05.985216</EPOCH><MEAN_MOTION>14.43291981</MEAN_MOTION><ECCENTRICITY>.0002131</ECCENTRICITY><INCLINATION>86.4518</INCLINATION><RA_OF_ASC_NODE>342.0703</RA_OF_ASC_NODE><ARG_OF_PERICENTER>96.2335</ARG_OF_PERICENTER><MEAN_ANOMALY>263.9108</MEAN_ANOMALY></meanElements><tleParameters><EPHEMERIS_TYPE>0</EPHEMERIS_TYPE><CLASSIFICATION_TYPE>U</CLASSIFICATION_TYPE><NORAD_CAT_ID>43478</NORAD_CAT_ID><ELEMENT_SET_NO>999</ELEMENT_SET_NO><REV_AT_EPOCH>33761</REV_AT_EPOCH><BSTAR>.45977E-3</BSTAR><MEAN_MOTION_DOT>.1567E-4</MEAN_MOTION_DOT><MEAN_MOTION_DDOT>0</MEAN_MOTION_DDOT></tleParameters></data></segment></body></omm>
<omm id="CCSDS_OMM_VERS" version="2.0">
<header><CREATION_DATE/><ORIGINATOR/></header><body><segment><metadata><OBJECT_NAME>IRIDIUM 152</OBJECT_NAME><OBJECT_ID>2018-047D</OBJECT_ID><CENTER_NAME>EARTH</CENTER_NAME><REF_FRAME>TEME</REF_FRAME><TIME_SYSTEM>UTC</TIME_SYSTEM><MEAN_ELEMENT_THEORY>SGP4</MEAN_ELEMENT_THEORY></metadata><data><meanElements><EPOCH>2024-10-18T09:28:30.669888</EPOCH><MEAN_MOTION>14.34221563</MEAN_MOTION><ECCENTRICITY>.0002136</ECCENTRICITY><INCLINATION>86.3992</INCLINATION><RA_OF_ASC_NODE>341.9257</RA_OF_ASC_NODE><ARG_OF_PERICENTER>94.3381</ARG_OF_PERICENTER><MEAN_ANOMALY>265.8059</MEAN_ANOMALY></meanElements><tleParameters><EPHEMERIS_TYPE>0</EPHEMERIS_TYPE><CLASSIFICATION_TYPE>U</CLASSIFICATION_TYPE><NORAD_CAT_ID>43479</NORAD_CAT_ID><ELEMENT_SET_NO>999</ELEMENT_SET_NO><REV_AT_EPOCH>33552</REV_AT_EPOCH><BSTAR>.4417E-3</BSTAR><MEAN_MOTION_DOT>.1257E-4</MEAN_MOTION_DOT><MEAN_MOTION_DDOT>0</MEAN_MOTION_DDOT></tleParameters></data></segment></body></omm>
<omm id="CCSDS_OMM_VERS" version="2.0">
<header><CREATION_DATE/><ORIGINATOR/></header><body><segment><metadata><OBJECT_NAME>IRIDIUM 147</OBJECT_NAME><OBJECT_ID>2018-047E</OBJECT_ID><CENTER_NAME>EARTH</CENTER_NAME><REF_FRAME>TEME</REF_FRAME><TIME_SYSTEM>UTC</TIME_SYSTEM><MEAN_ELEMENT_THEORY>SGP4</MEAN_ELEMENT_THEORY></metadata><data><meanElements><EPOCH>2024-10-17T15:12:31.532256</EPOCH><MEAN_MOTION>14.34209571</MEAN_MOTION><ECCENTRICITY>.0001927</ECCENTRICITY><INCLINATION>86.3995</INCLINATION><RA_OF_ASC_NODE>342.2383</RA_OF_ASC_NODE><ARG_OF_PERICENTER>95.6164</ARG_OF_PERICENTER><MEAN_ANOMALY>264.5252</MEAN_ANOMALY></meanElements><tleParameters><EPHEMERIS_TYPE>0</EPHEMERIS_TYPE><CLASSIFICATION_TYPE>U</CLASSIFICATION_TYPE><NORAD_CAT_ID>43480</NORAD_CAT_ID><ELEMENT_SET_NO>999</ELEMENT_SET_NO><REV_AT_EPOCH>33540</REV_AT_EPOCH><BSTAR>.23353E-4</BSTAR><MEAN_MOTION_DOT>.85E-6</MEAN_MOTION_DOT><MEAN_MOTION_DDOT>0</MEAN_MOTION_DDOT></tleParameters></data></segment></body></omm>
<omm id="CCSDS_OMM_VERS" version="2.0">
<header><CREATION_DATE/><ORIGINATOR/></header><body><segment><metadata><OBJECT_NAME>IRIDIUM 110</OBJECT_NAME><OBJECT_ID>2018-047F</OBJECT_ID><CENTER_NAME>EARTH</CENTER_NAME><REF_FRAME>TEME</REF_FRAME><TIME_SYSTEM>UTC</TIME_SYSTEM><MEAN_ELEMENT_THEORY>SGP4</MEAN_ELEMENT_THEORY></metadata><data><meanElements><EPOCH>2024-10-18T04:45:23.424192</EPOCH><MEAN_MOTION>14.34216752</MEAN_MOTION><ECCENTRICITY>.0001769</ECCENTRICITY><INCLINATION>86.3995</INCLINATION><RA_OF_ASC_NODE>342.0784</RA_OF_ASC_NODE><ARG_OF_PERICENTER>104.2990</ARG_OF_PERICENTER><MEAN_ANOMALY>255.8402</MEAN_ANOMALY></meanElements><tleParameters><EPHEMERIS_TYPE>0</EPHEMERIS_TYPE><CLASSIFICATION_TYPE>U</CLASSIFICATION_TYPE><NORAD_CAT_ID>43481</NORAD_CAT_ID><ELEMENT_SET_NO>999</ELEMENT_SET_NO><REV_AT_EPOCH>33547</REV_AT_EPOCH><BSTAR>.41004E-3</BSTAR><MEAN_MOTION_DOT>.1168E-4</MEAN_MOTION_DOT><MEAN_MOTION_DDOT>0</MEAN_MOTION_DDOT></tleParameters></data></segment></body></omm>
<omm id="CCSDS_OMM_VERS" version="2.0">
<header><CREATION_DATE/><ORIGINATOR/></header><body><segment><metadata><OBJECT_NAME>IRIDIUM 162</OBJECT_NAME><OBJECT_ID>2018-047G</OBJECT_ID><CENTER_NAME>EARTH</CENTER_NAME><REF_FRAME>TEME</REF_FRAME><TIME_SYSTEM>UTC</TIME_SYSTEM><MEAN_ELEMENT_THEORY>SGP4</MEAN_ELEMENT_THEORY></metadata><data><meanElements><EPOCH>2024-10-18T04:06:33.017472</EPOCH><MEAN_MOTION>14.43287825</MEAN_MOTION><ECCENTRICITY>.0001856</ECCENTRICITY><INCLINATION>86.4515</INCLINATION><RA_OF_ASC_NODE>342.0582</RA_OF_ASC_NODE><ARG_OF_PERICENTER>98.3471</ARG_OF_PERICENTER><MEAN_ANOMALY>261.7941</MEAN_ANOMALY></meanElements><tleParameters><EPHEMERIS_TYPE>0</EPHEMERIS_TYPE><CLASSIFICATION_TYPE>U</CLASSIFICATION_TYPE><NORAD_CAT_ID>43482</NORAD_CAT_ID><ELEMENT_SET_NO>999</ELEMENT_SET_NO><REV_AT_EPOCH>33757</REV_AT_EPOCH><BSTAR>.45439E-3</BSTAR><MEAN_MOTION_DOT>.1549E-4</MEAN_MOTION_DOT><MEAN_MOTION_DDOT>0</MEAN_MOTION_DDOT></tleParameters></data></segment></body></omm>
<omm id="CCSDS_OMM_VERS" version="2.0">
<header><CREATION_DATE/><ORIGINATOR/></header><body><segment><metadata><OBJECT_NAME>IRIDIUM 160</OBJECT_NAME><OBJECT_ID>2018-061A</OBJECT_ID><CENTER_NAME>EARTH</CENTER_NAME><REF_FRAME>TEME</REF_FRAME><TIME_SYSTEM>UTC</TIME_SYSTEM><MEAN_ELEMENT_THEORY>SGP4</MEAN_ELEMENT_THEORY></metadata><data><meanElements><EPOCH>2024-10-18T10:09:13.086432</EPOCH><MEAN_MOTION>14.34215275</MEAN_MOTION><ECCENTRICITY>.0001891</ECCENTRICITY><INCLINATION>86.3933</INCLINATION><RA_OF_ASC_NODE>310.3566</RA_OF_ASC_NODE><ARG_OF_PERICENTER>89.1128</ARG_OF_PERICENTER><MEAN_ANOMALY>271.0284</MEAN_ANOMALY></meanElements><tleParameters><EPHEMERIS_TYPE>0</EPHEMERIS_TYPE><CLASSIFICATION_TYPE>U</CLASSIFICATION_TYPE><NORAD_CAT_ID>43569</NORAD_CAT_ID><ELEMENT_SET_NO>999</ELEMENT_SET_NO><REV_AT_EPOCH>32640</REV_AT_EPOCH><BSTAR>-.11093E-3</BSTAR><MEAN_MOTION_DOT>-.291E-5</MEAN_MOTION_DOT><MEAN_MOTION_DDOT>0</MEAN_MOTION_DDOT></tleParameters></data></segment></body></omm>

</ndm>
