IRIDIUM 150             
1 43257U 18030J   24292.23180893  .00001360  00000+0  47849-3 0  9990
2 43257  86.4038 184.1484 0002429  80.9081 279.2389 14.34219569343188
IRIDIUM 143             
1 43258U 18030K   24291.72440301  .00001240  00000+0  43570-3 0  9991
2 43258  86.4043 184.4284 0002698  81.9612 278.1889 14.34218935343027
IRIDIUM 161             
1 43478U 18047C   24292.38548594  .00001567  00000+0  45977-3 0  9994
2 43478  86.4518 342.0703 0002131  96.2335 263.9108 14.43291981337615
IRIDIUM 152             
1 43479U 18047D   24292.39479942  .00001257  00000+0  44170-3 0  9996
2 43479  86.3992 341.9257 0002136  94.3381 265.8059 14.34221563335521
IRIDIUM 147             
1 43480U 18047E   24291.63369829  .00000085  00000+0  23353-4 0  9995
2 43480  86.3995 342.2383 0001927  95.6164 264.5252 14.34209571335403
IRIDIUM 110             
1 43481U 18047F   24292.19818778  .00001168  00000+0  41004-3 0  9995
2 43481  86.3995 342.0784 0001769 104.2990 255.8402 14.34216752335471
IRIDIUM 162             
1 43482U 18047G   24292.17121548  .00001549  00000+0  45439-3 0  9995
2 43482  86.4515 342.0582 0001856  98.3471 261.7941 14.43287825337577
IRIDIUM 160             
1 43569U 18061A   24292.42306813 -.00000291  00000+0 -11093-3 0  9999
2 43569  86.3933 310.3566 0001891  89.1128 271.0284 14.34215275326406
